18 36
OneWeb-synthetic 124
1 00125U 00000ABC 00001.00000000  .00000000  00000-0  00000+0 0    01
2 00125  87.9000  60.0000 0000001   0.0000 165.0000 13.00000000    07
OneWeb-synthetic 125
1 00126U 00000ABC 00001.00000000  .00000000  00000-0  00000+0 0    02
2 00126  87.9000  60.0000 0000001   0.0000 175.0000 13.00000000    09
OneWeb-synthetic 126
1 00127U 00000ABC 00001.00000000  .00000000  00000-0  00000+0 0    03
2 00127  87.9000  60.0000 0000001   0.0000 185.0000 13.00000000    01
OneWeb-synthetic 127
1 00128U 00000ABC 00001.00000000  .00000000  00000-0  00000+0 0    04
2 00128  87.9000  60.0000 0000001   0.0000 195.0000 13.00000000    03
OneWeb-synthetic 128
1 00129U 00000ABC 00001.00000000  .00000000  00000-0  00000+0 0    05
2 00129  87.9000  60.0000 0000001   0.0000 205.0000 13.00000000    06
OneWeb-synthetic 129
1 00130U 00000ABC 00001.00000000  .00000000  00000-0  00000+0 0    07
2 00130  87.9000  60.0000 0000001   0.0000 215.0000 13.00000000    09
OneWeb-synthetic 130
1 00131U 00000ABC 00001.00000000  .00000000  00000-0  00000+0 0    08
2 00131  87.9000  60.0000 0000001   0.0000 225.0000 13.00000000    01
OneWeb-synthetic 131
1 00132U 00000ABC 00001.00000000  .00000000  00000-0  00000+0 0    09
2 00132  87.9000  60.0000 0000001   0.0000 235.0000 13.00000000    03
OneWeb-synthetic 132
1 00133U 00000ABC 00001.00000000  .00000000  00000-0  00000+0 0    00
2 00133  87.9000  60.0000 0000001   0.0000 245.0000 13.00000000    05
OneWeb-synthetic 133
1 00134U 00000ABC 00001.00000000  .00000000  00000-0  00000+0 0    01
2 00134  87.9000  60.0000 0000001   0.0000 255.0000 13.00000000    07
OneWeb-synthetic 134
1 00135U 00000ABC 00001.00000000  .00000000  00000-0  00000+0 0    02
2 00135  87.9000  60.0000 0000001   0.0000 265.0000 13.00000000    09
OneWeb-synthetic 135
1 00136U 00000ABC 00001.00000000  .00000000  00000-0  00000+0 0    03
2 00136  87.9000  60.0000 0000001   0.0000 275.0000 13.00000000    01
OneWeb-synthetic 136
1 00137U 00000ABC 00001.00000000  .00000000  00000-0  00000+0 0    04
2 00137  87.9000  60.0000 0000001   0.0000 285.0000 13.00000000    03
OneWeb-synthetic 137
1 00138U 00000ABC 00001.00000000  .00000000  00000-0  00000+0 0    05
2 00138  87.9000  60.0000 0000001   0.0000 295.0000 13.00000000    05
OneWeb-synthetic 138
1 00139U 00000ABC 00001.00000000  .00000000  00000-0  00000+0 0    06
2 00139  87.9000  60.0000 0000001   0.0000 305.0000 13.00000000    08
OneWeb-synthetic 139
1 00140U 00000ABC 00001.00000000  .00000000  00000-0  00000+0 0    08
2 00140  87.9000  60.0000 0000001   0.0000 315.0000 13.00000000    01
OneWeb-synthetic 140
1 00141U 00000ABC 00001.00000000  .00000000  00000-0  00000+0 0    09
2 00141  87.9000  60.0000 0000001   0.0000 325.0000 13.00000000    03
OneWeb-synthetic 141
1 00142U 00000ABC 00001.00000000  .00000000  00000-0  00000+0 0    00
2 00142  87.9000  60.0000 0000001   0.0000 335.0000 13.00000000    05
OneWeb-synthetic 142
1 00143U 00000ABC 00001.00000000  .00000000  00000-0  00000+0 0    01
2 00143  87.9000  60.0000 0000001   0.0000 345.0000 13.00000000    07
OneWeb-synthetic 143
1 00144U 00000ABC 00001.00000000  .00000000  00000-0  00000+0 0    02
2 00144  87.9000  60.0000 0000001   0.0000 355.0000 13.00000000    09
OneWeb-synthetic 144
1 00145U 00000ABC 00001.00000000  .00000000  00000-0  00000+0 0    03
2 00145  87.9000  80.0000 0000001   0.0000   0.0000 13.00000000    09
OneWeb-synthetic 145
1 00146U 00000ABC 00001.00000000  .00000000  00000-0  00000+0 0    04
2 00146  87.9000  80.0000 0000001   0.0000  10.0000 13.00000000    01
OneWeb-synthetic 146
1 00147U 00000ABC 00001.00000000  .00000000  00000-0  00000+0 0    05
2 00147  87.9000  80.0000 0000001   0.0000  20.0000 13.00000000    03
OneWeb-synthetic 147
1 00148U 00000ABC 00001.00000000  .00000000  00000-0  00000+0 0    06
2 00148  87.9000  80.0000 0000001   0.0000  30.0000 13.00000000    05
OneWeb-synthetic 148
1 00149U 00000ABC 00001.00000000  .00000000  00000-0  00000+0 0    07
2 00149  87.9000  80.0000 0000001   0.0000  40.0000 13.00000000    07
OneWeb-synthetic 149
1 00150U 00000ABC 00001.00000000  .00000000  00000-0  00000+0 0    09
2 00150  87.9000  80.0000 0000001   0.0000  50.0000 13.00000000    00
OneWeb-synthetic 150
1 00151U 00000ABC 00001.00000000  .00000000  00000-0  00000+0 0    00
2 00151  87.9000  80.0000 0000001   0.0000  60.0000 13.00000000    02
OneWeb-synthetic 151
1 00152U 00000ABC 00001.00000000  .00000000  00000-0  00000+0 0    01
2 00152  87.9000  80.0000 0000001   0.0000  70.0000 13.00000000    04
OneWeb-synthetic 152
1 00153U 00000ABC 00001.00000000  .00000000  00000-0  00000+0 0    02
2 00153  87.9000  80.0000 0000001   0.0000  80.0000 13.00000000    06
OneWeb-synthetic 153
1 00154U 00000ABC 00001.00000000  .00000000  00000-0  00000+0 0    03
2 00154  87.9000  80.0000 0000001   0.0000  90.0000 13.00000000    08
OneWeb-synthetic 154
1 00155U 00000ABC 00001.00000000  .00000000  00000-0  00000+0 0    04
2 00155  87.9000  80.0000 0000001   0.0000 100.0000 13.00000000    01
OneWeb-synthetic 155
1 00156U 00000ABC 00001.00000000  .00000000  00000-0  00000+0 0    05
2 00156  87.9000  80.0000 0000001   0.0000 110.0000 13.00000000    03
OneWeb-synthetic 156
1 00157U 00000ABC 00001.00000000  .00000000  00000-0  00000+0 0    06
2 00157  87.9000  80.0000 0000001   0.0000 120.0000 13.00000000    05
OneWeb-synthetic 157
1 00158U 00000ABC 00001.00000000  .00000000  00000-0  00000+0 0    07
2 00158  87.9000  80.0000 0000001   0.0000 130.0000 13.00000000    07
OneWeb-synthetic 158
1 00159U 00000ABC 00001.00000000  .00000000  00000-0  00000+0 0    08
2 00159  87.9000  80.0000 0000001   0.0000 140.0000 13.00000000    09
OneWeb-synthetic 159
1 00160U 00000ABC 00001.00000000  .00000000  00000-0  00000+0 0    00
2 00160  87.9000  80.0000 0000001   0.0000 150.0000 13.00000000    02
OneWeb-synthetic 160
1 00161U 00000ABC 00001.00000000  .00000000  00000-0  00000+0 0    01
2 00161  87.9000  80.0000 0000001   0.0000 160.0000 13.00000000    04
OneWeb-synthetic 161
1 00162U 00000ABC 00001.00000000  .00000000  00000-0  00000+0 0    02
2 00162  87.9000  80.0000 0000001   0.0000 170.0000 13.00000000    06
OneWeb-synthetic 162
1 00163U 00000ABC 00001.00000000  .00000000  00000-0  00000+0 0    03
2 00163  87.9000  80.0000 0000001   0.0000 180.0000 13.00000000    08
OneWeb-synthetic 163
1 00164U 00000ABC 00001.00000000  .00000000  00000-0  00000+0 0    04
2 00164  87.9000  80.0000 0000001   0.0000 190.0000 13.00000000    00
OneWeb-synthetic 164
1 00165U 00000ABC 00001.00000000  .00000000  00000-0  00000+0 0    05
2 00165  87.9000  80.0000 0000001   0.0000 200.0000 13.00000000    03
OneWeb-synthetic 165
1 00166U 00000ABC 00001.00000000  .00000000  00000-0  00000+0 0    06
2 00166  87.9000  80.0000 0000001   0.0000 210.0000 13.00000000    05
OneWeb-synthetic 166
1 00167U 00000ABC 00001.00000000  .00000000  00000-0  00000+0 0    07
2 00167  87.9000  80.0000 0000001   0.0000 220.0000 13.00000000    07
OneWeb-synthetic 167
1 00168U 00000ABC 00001.00000000  .00000000  00000-0  00000+0 0    08
2 00168  87.9000  80.0000 0000001   0.0000 230.0000 13.00000000    09
OneWeb-synthetic 168
1 00169U 00000ABC 00001.00000000  .00000000  00000-0  00000+0 0    09
2 00169  87.9000  80.0000 0000001   0.0000 240.0000 13.00000000    01
OneWeb-synthetic 169
1 00170U 00000ABC 00001.00000000  .00000000  00000-0  00000+0 0    01
2 00170  87.9000  80.0000 0000001   0.0000 250.0000 13.00000000    04
OneWeb-synthetic 170
1 00171U 00000ABC 00001.00000000  .00000000  00000-0  00000+0 0    02
2 00171  87.9000  80.0000 0000001   0.0000 260.0000 13.00000000    06
OneWeb-synthetic 171
1 00172U 00000ABC 00001.00000000  .00000000  00000-0  00000+0 0    03
2 00172  87.9000  80.0000 0000001   0.0000 270.0000 13.00000000    08
OneWeb-synthetic 172
1 00173U 00000ABC 00001.00000000  .00000000  00000-0  00000+0 0    04
2 00173  87.9000  80.0000 0000001   0.0000 280.0000 13.00000000    00
OneWeb-synthetic 173
1 00174U 00000ABC 00001.00000000  .00000000  00000-0  00000+0 0    05
2 00174  87.9000  80.0000 0000001   0.0000 290.0000 13.00000000    02
OneWeb-synthetic 174
1 00175U 00000ABC 00001.00000000  .00000000  00000-0  00000+0 0    06
2 00175  87.9000  80.0000 0000001   0.0000 300.0000 13.00000000    05
OneWeb-synthetic 175
1 00176U 00000ABC 00001.00000000  .00000000  00000-0  00000+0 0    07
2 00176  87.9000  80.0000 0000001   0.0000 310.0000 13.00000000    07
OneWeb-synthetic 176
1 00177U 00000ABC 00001.00000000  .00000000  00000-0  00000+0 0    08
2 00177  87.9000  80.0000 0000001   0.0000 320.0000 13.00000000    09
OneWeb-synthetic 177
1 00178U 00000ABC 00001.00000000  .00000000  00000-0  00000+0 0    09
2 00178  87.9000  80.0000 0000001   0.0000 330.0000 13.00000000    01
OneWeb-synthetic 178
1 00179U 00000ABC 00001.00000000  .00000000  00000-0  00000+0 0    00
2 00179  87.9000  80.0000 0000001   0.0000 340.0000 13.00000000    03
OneWeb-synthetic 179
1 00180U 00000ABC 00001.00000000  .00000000  00000-0  00000+0 0    02
2 00180  87.9000  80.0000 0000001   0.0000 350.0000 13.00000000    06
OneWeb-synthetic 180
1 00181U 00000ABC 00001.00000000  .00000000  00000-0  00000+0 0    03
2 00181  87.9000 100.0000 0000001   0.0000   5.0000 13.00000000    07
OneWeb-synthetic 181
1 00182U 00000ABC 00001.00000000  .00000000  00000-0  00000+0 0    04
2 00182  87.9000 100.0000 0000001   0.0000  15.0000 13.00000000    09
OneWeb-synthetic 182
1 00183U 00000ABC 00001.00000000  .00000000  00000-0  00000+0 0    05
2 00183  87.9000 100.0000 0000001   0.0000  25.0000 13.00000000    01
OneWeb-synthetic 183
1 00184U 00000ABC 00001.00000000  .00000000  00000-0  00000+0 0    06
2 00184  87.9000 100.0000 0000001   0.0000  35.0000 13.00000000    03
OneWeb-synthetic 184
1 00185U 00000ABC 00001.00000000  .00000000  00000-0  00000+0 0    07
2 00185  87.9000 100.0000 0000001   0.0000  45.0000 13.00000000    05
OneWeb-synthetic 185
1 00186U 00000ABC 00001.00000000  .00000000  00000-0  00000+0 0    08
2 00186  87.9000 100.0000 0000001   0.0000  55.0000 13.00000000    07
